[{"OBJECT_NAME":"GEESAT-5 04","OBJECT_ID":"2025-201D","EPOCH":"2026-03-09T16:43:55.713504","MEAN_MOTION":14.83246281,"ECCENTRICITY":0.00110249,"INCLINATION":49.9844,"RA_OF_ASC_NODE":141.1656,"ARG_OF_PERICENTER":244.2414,"MEAN_ANOMALY":115.7387,"EPHEMERIS_TYPE":0,"CLASSIFICATION_TYPE":"U","NORAD_CAT_ID":65553,"ELEMENT_SET_NO":999,"REV_AT_EPOCH":2701,"BSTAR":0.00027420324,"MEAN_MOTION_DOT":2.041e-5,"MEAN_MOTION_DDOT":0},{"OBJECT_NAME":"TIROS 6 DEB","OBJECT_ID":"1962-047F","EPOCH":"2026-02-26T12:33:51.606144","MEAN_MOTION":14.85735462,"ECCENTRICITY":0.000895,"INCLINATION":58.308,"RA_OF_ASC_NODE":80.7183,"ARG_OF_PERICENTER":159.6882,"MEAN_ANOMALY":200.4519,"EPHEMERIS_TYPE":0,"CLASSIFICATION_TYPE":"U","NORAD_CAT_ID":29006,"ELEMENT_SET_NO":999,"REV_AT_EPOCH":68518,"BSTAR":9.0328e-5,"MEAN_MOTION_DOT":5.8e-6,"MEAN_MOTION_DDOT":0}]
